[
    {
        "CCSDS_OMM_VERS": "3.0",
        "COMMENT": "GENERATED VIA SPACE-TRACK.ORG API",
        "CREATION_DATE": "2025-03-02T18:08:23",
        "ORIGINATOR": "18 SPCS",
        "OBJECT_NAME": "BEIDOU 3M2",
        "OBJECT_ID": "2017-069B",
        "CENTER_NAME": "EARTH",
        "REF_FRAME": "TEME",
        "TIME_SYSTEM": "UTC",
        "MEAN_ELEMENT_THEORY": "SGP4",
        "EPOCH": "2025-03-02T02:06:22.127904",
        "MEAN_MOTION": "1.86230832",
        "ECCENTRICITY": "0.00096230",
        "INCLINATION": "56.2771",
        "RA_OF_ASC_NODE": "78.7206",
        "ARG_OF_PERICENTER": "321.7228",
        "MEAN_ANOMALY": "38.2614",
        "EPHEMERIS_TYPE": "0",
        "CLASSIFICATION_TYPE": "U",
        "NORAD_CAT_ID": "43002",
        "ELEMENT_SET_NO": "999",
        "REV_AT_EPOCH": "4980",
        "BSTAR": "0.00000000000000",
        "MEAN_MOTION_DOT": "0.00000012",
        "MEAN_MOTION_DDOT": "0.0000000000000",
        "SEMIMAJOR_AXIS": "27906.205",
        "PERIOD": "773.234",
        "APOAPSIS": "21554.924",
        "PERIAPSIS": "21501.216",
        "OBJECT_TYPE": "PAYLOAD",
        "RCS_SIZE": "LARGE",
        "COUNTRY_CODE": "PRC",
        "LAUNCH_DATE": "2017-11-05",
        "SITE": "XSC",
        "DECAY_DATE": null,
        "FILE": "4657142",
        "GP_ID": "282086508",
        "TLE_LINE0": "0 BEIDOU 3M2",
        "TLE_LINE1": "1 43002U 17069B   25061.08775611  .00000012  00000-0  00000-0 0  9994",
        "TLE_LINE2": "2 43002  56.2771  78.7206 0009623 321.7228  38.2614  1.86230832 49802"
    }
]